[{"OBJECT_NAME":"UVSQ-SAT NG","OBJECT_ID":"2025-052AT","EPOCH":"2026-03-09T16:14:06.443808","MEAN_MOTION":14.94868635,"ECCENTRICITY":0.00025988,"INCLINATION":97.6968,"RA_OF_ASC_NODE":322.0499,"ARG_OF_PERICENTER":168.7801,"MEAN_ANOMALY":191.3478,"EPHEMERIS_TYPE":0,"CLASSIFICATION_TYPE":"U","NORAD_CAT_ID":63251,"ELEMENT_SET_NO":999,"REV_AT_EPOCH":5376,"BSTAR":0.00026115974,"MEAN_MOTION_DOT":2.79e-5,"MEAN_MOTION_DDOT":0},{"OBJECT_NAME":"ORBCOMM FM02","OBJECT_ID":"1995-017B","EPOCH":"2026-03-09T15:14:02.878656","MEAN_MOTION":14.96738099,"ECCENTRICITY":0.0008676,"INCLINATION":69.9626,"RA_OF_ASC_NODE":148.0696,"ARG_OF_PERICENTER":276.2558,"MEAN_ANOMALY":83.7611,"EPHEMERIS_TYPE":0,"CLASSIFICATION_TYPE":"U","NORAD_CAT_ID":23546,"ELEMENT_SET_NO":999,"REV_AT_EPOCH":65179,"BSTAR":0.00080978,"MEAN_MOTION_DOT":9.2e-5,"MEAN_MOTION_DDOT":0}]
